$$SOE
2460154.500000000, A.D. 2023-Jul-29 00:00:00.0000, -3.492846384998053E+08, -1.795707645411949E+08, 3.382072789333463E+06,
2460161.500000000, A.D. 2023-Aug-05 00:00:00.0000, -3.441315829114403E+08, -1.882304787662197E+08, 2.384293205420531E+06,
2460168.500000000, A.D. 2023-Aug-12 00:00:00.0000, -3.387017926018352E+08, -1.967388031395679E+08, 1.384598220699906E+06,
2460175.500000000, A.D. 2023-Aug-19 00:00:00.0000, -3.329984756167184E+08, -2.050882208859807E+08, 3.837873639858663E+05,
2460182.500000000, A.D. 2023-Aug-26 00:00:00.0000, -3.270249802278282E+08, -2.132712131070345E+08, -6.173322317480892E+05,
2460189.500000000, A.D. 2023-Sep-02 00:00:00.0000, -3.207847998103895E+08, -2.212802567244210E+08, -1.617945401030719E+06,
2460196.500000000, A.D. 2023-Sep-09 00:00:00.0000, -3.142815780862882E+08, -2.291078227525296E+08, -2.617228527125701E+06,
2460203.500000000, A.D. 2023-Sep-16 00:00:00.0000, -3.075191145713772E+08, -2.367463749761096E+08, -3.614349154079854E+06,
2460210.500000000, A.D. 2023-Sep-23 00:00:00.0000, -3.005013698177449E+08, -2.441883687656515E+08, -4.608465645506755E+06,
2460217.500000000, A.D. 2023-Sep-30 00:00:00.0000, -2.932324707976526E+08, -2.514262488606075E+08, -5.598726762898475E+06,
2460224.500000000, A.D. 2023-Oct-07 00:00:00.0000, -2.857167187892302E+08, -2.584524466862109E+08, -6.584270993375674E+06,
2460231.500000000, A.D. 2023-Oct-14 00:00:00.0000, -2.779585987312717E+08, -2.652593805440536E+08, -7.564225994779959E+06,
2460238.500000000, A.D. 2023-Oct-21 00:00:00.0000, -2.699627868281375E+08, -2.718394571038167E+08, -8.537708325167432E+06,
2460245.500000000, A.D. 2023-Oct-28 00:00:00.0000, -2.617341578382543E+08, -2.781850719663953E+08, -9.503823143170521E+06,
2460252.500000000, A.D. 2023-Nov-04 00:00:00.0000, -2.532777933028709E+08, -2.842886101002821E+08, -1.046166382947192E+07,
2460259.500000000, A.D. 2023-Nov-11 00:00:00.0000, -2.445989905420697E+08, -2.901424467860746E+08, -1.141031159704584E+07,
2460266.500000000, A.D. 2023-Nov-18 00:00:00.0000, -2.357032722023886E+08, -2.957389491734461E+08, -1.234883511844227E+07,
2460273.500000000, A.D. 2023-Nov-25 00:00:00.0000, -2.265963962874290E+08, -3.010704784726248E+08, -1.327629017827661E+07,
2460280.500000000, A.D. 2023-Dec-02 00:00:00.0000, -2.172843666469753E+08, -3.061293928393646E+08, -1.419171935806523E+07,
2460287.500000000, A.D. 2023-Dec-09 00:00:00.0000, -2.077734438484360E+08, -3.109080510631711E+08, -1.509415176939897E+07,
2460294.500000000, A.D. 2023-Dec-16 00:00:00.0000, -1.980701561419710E+08, -3.153988171008986E+08, -1.598260286537336E+07,
2460301.500000000, A.D. 2023-Dec-23 00:00:00.0000, -1.881813101668676E+08, -3.195940648272054E+08, -1.685607431122640E+07,
2460308.500000000, A.D. 2023-Dec-30 00:00:00.0000, -1.781140027315830E+08, -3.234861820153368E+08, -1.771355371127120E+07,
2460315.500000000, A.D. 2024-Jan-06 00:00:00.0000, -1.678756354271634E+08, -3.270675759764298E+08, -1.855401422900683E+07,
2460322.500000000, A.D. 2024-Jan-13 00:00:00.0000, -1.574739288845095E+08, -3.303306827395288E+08, -1.937641454666366E+07,
2460329.500000000, A.D. 2024-Jan-20 00:00:00.0000, -1.469169354324622E+08, -3.332679767696631E+08, -2.017969903268564E+07,
2460336.500000000, A.D. 2024-Jan-27 00:00:00.0000, -1.362130521610323E+08, -3.358719806570519E+08, -2.096279788665918E+07,
2460343.500000000, A.D. 2024-Feb-03 00:00:00.0000, -1.253710347871521E+08, -3.381352758138517E+08, -2.172462730932133E+07,
2460350.500000000, A.D. 2024-Feb-10 00:00:00.0000, -1.144000120062960E+08, -3.400505145589404E+08, -2.246408975664896E+07,
2460357.500000000, A.D. 2024-Feb-17 00:00:00.0000, -1.033095001401892E+08, -3.416104336737742E+08, -2.318007430024666E+07,
2460364.500000000, A.D. 2024-Feb-24 00:00:00.0000, -9.210941797909094E+07, -3.428078695104178E+08, -2.387145710709460E+07,
2460371.500000000, A.D. 2024-Mar-02 00:00:00.0000, -8.081010170966877E+07, -3.436357747892551E+08, -2.453710205648535E+07,
2460378.500000000, A.D. 2024-Mar-09 00:00:00.0000, -6.942231969841862E+07, -3.440872372643669E+08, -2.517586152644767E+07,
2460385.500000000, A.D. 2024-Mar-16 00:00:00.0000, -5.795728663399687E+07, -3.441555001811882E+08, -2.578657738588664E+07,
2460392.500000000, A.D. 2024-Mar-23 00:00:00.0000, -4.642667701868433E+07, -3.438339835400376E+08, -2.636808210924420E+07,
2460399.500000000, A.D. 2024-Mar-30 00:00:00.0000, -3.484264011957353E+07, -3.431163063105646E+08, -2.691919982750209E+07,
2460406.500000000, A.D. 2024-Apr-06 00:00:00.0000, -2.321781597018160E+07, -3.419963130787686E+08, -2.743874763197114E+07,
2460413.500000000, A.D. 2024-Apr-13 00:00:00.0000, -1.156534869428613E+07, -3.404681044039897E+08, -2.792553740707685E+07,
2460420.500000000, A.D. 2024-Apr-20 00:00:00.0000, 1.011020960376936E+05, -3.385260683206471E+08, -2.837837790580557E+07,
2460427.500000000, A.D. 2024-Apr-27 00:00:00.0000, 1.176735053652407E+07, -3.361649136497521E+08, -2.879607699491516E+07,
2460434.500000000, A.D. 2024-May-04 00:00:00.0000, 2.341867472142006E+07, -3.333797059169298E+08, -2.917744415640779E+07,
2460441.500000000, A.D. 2024-May-11 00:00:00.0000, 3.503980840782011E+07, -3.301659060583295E+08, -2.952129329672432E+07,
2460448.500000000, A.D. 2024-May-18 00:00:00.0000, 4.661493460618436E+07, -3.265194119534994E+08, -2.982644589070192E+07,
2460455.500000000, A.D. 2024-May-25 00:00:00.0000, 5.812768142485160E+07, -3.224366028301114E+08, -3.009173448432842E+07,
2460462.500000000, A.D. 2024-Jun-01 00:00:00.0000, 6.956112060474150E+07, -3.179143866105646E+08, -3.031600658740321E+07,
2460469.500000000, A.D. 2024-Jun-08 00:00:00.0000, 8.089776939781798E+07, -3.129502502059605E+08, -3.049812900059098E+07,
2460476.500000000, A.D. 2024-Jun-15 00:00:00.0000, 9.211959662488261E+07, -3.075423121557823E+08, -3.063699258719422E+07,
2460483.500000000, A.D. 2024-Jun-22 00:00:00.0000, 1.032080323713095E+08, -3.016893763330569E+08, -3.073151731711099E+07,
2460490.500000000, A.D. 2024-Jun-29 00:00:00.0000, 1.141439796884280E+08, -2.953909883726475E+08, -3.078065754953068E+07,
2460497.500000000, A.D. 2024-Jul-06 00:00:00.0000, 1.249078314578707E+08, -2.886474970661578E+08, -3.078340800722700E+07,
2460504.500000000, A.D. 2024-Jul-13 00:00:00.0000, 1.354794948972084E+08, -2.814601176039342E+08, -3.073881039373149E+07,
2460511.500000000, A.D. 2024-Jul-20 00:00:00.0000, 1.458384222566650E+08, -2.738309951409432E+08, -3.064596037368795E+07,
2460518.500000000, A.D. 2024-Jul-27 00:00:00.0000, 1.559636475845098E+08, -2.657632691794589E+08, -3.050401492233257E+07,
2460525.500000000, A.D. 2024-Aug-03 00:00:00.0000, 1.658338303576922E+08, -2.572611385781239E+08, -3.031220007818498E+07,
2460532.500000000, A.D. 2024-Aug-10 00:00:00.0000, 1.754273066452620E+08, -2.483299265243710E+08, -3.006981908347577E+07,
2460539.500000000, A.D. 2024-Aug-17 00:00:00.0000, 1.847221483145847E+08, -2.389761446770298E+08, -2.977626087413658E+07,
2460546.500000000, A.D. 2024-Aug-24 00:00:00.0000, 1.936962307099813E+08, -2.292075556227493E+08, -2.943100887227415E+07,
2460553.500000000, A.D. 2024-Aug-31 00:00:00.0000, 2.023273092396132E+08, -2.190332327194030E+08, -2.903365003295194E+07,
2460560.500000000, A.D. 2024-Sep-07 00:00:00.0000, 2.105931054553553E+08, -2.084636161081150E+08, -2.858388409075817E+07,
2460567.500000000, A.D. 2024-Sep-14 00:00:00.0000, 2.184714028020486E+08, -1.975105627133340E+08, -2.808153283943306E+07,
2460574.500000000, A.D. 2024-Sep-21 00:00:00.0000, 2.259401499390554E+08, -1.861873885459933E+08, -2.752654911488702E+07,
2460581.500000000, A.D. 2024-Sep-28 00:00:00.0000, 2.329775708948711E+08, -1.745089051847647E+08, -2.691902557407885E+07,
2460588.500000000, A.D. 2024-Oct-05 00:00:00.0000, 2.395622852741521E+08, -1.624914490265490E+08, -2.625920346457214E+07,
2460595.500000000, A.D. 2024-Oct-12 00:00:00.0000, 2.456734374905179E+08, -1.501528989034265E+08, -2.554748095373187E+07,
2460602.500000000, A.D. 2024-Oct-19 00:00:00.0000, 2.512908323704103E+08, -1.375126809338494E+08, -2.478442071373335E+07,
2460609.500000000, A.D. 2024-Oct-26 00:00:00.0000, 2.563950759403509E+08, -1.245917600634307E+08, -2.397075665116989E+07,
2460616.500000000, A.D. 2024-Nov-02 00:00:00.0000, 2.609677202443464E+08, -1.114126172009829E+08, -2.310739963844622E+07,
2460623.500000000, A.D. 2024-Nov-09 00:00:00.0000, 2.649914106250155E+08, -9.799921084148002E+07, -2.219544207488276E+07,
2460630.500000000, A.D. 2024-Nov-16 00:00:00.0000, 2.684500335878017E+08, -8.437692229641300E+07, -2.123616110433906E+07,
2460637.500000000, A.D. 2024-Nov-23 00:00:00.0000, 2.713288631609547E+08, -7.057248395994183E+07, -2.023102033082728E+07,
2460644.500000000, A.D. 2024-Nov-30 00:00:00.0000, 2.736147036263231E+08, -5.661389032777637E+07, -1.918166990260467E+07,
2460651.500000000, A.D. 2024-Dec-07 00:00:00.0000, 2.752960265702103E+08, -4.253029134562083E+07, -1.808994483931471E+07,
2460658.500000000, A.D. 2024-Dec-14 00:00:00.0000, 2.763630990597067E+08, -2.835186723139155E+07, -1.695786134072081E+07,
2460665.500000000, A.D. 2024-Dec-21 00:00:00.0000, 2.768080981519719E+08, -1.410968681559730E+07, -1.578761090485673E+07,
2460672.500000000, A.D. 2024-Dec-28 00:00:00.0000, 2.766252112900113E+08, 1.644463868459994E+05, -1.458155265623727E+07,
2460679.500000000, A.D. 2025-Jan-04 00:00:00.0000, 2.758107228907833E+08, 1.443816109354975E+07, -1.334220394493145E+07,
2460686.500000000, A.D. 2025-Jan-11 00:00:00.0000, 2.743630832409026E+08, 2.867869777731938E+07, -1.207222897439752E+07,
2460693.500000000, A.D. 2025-Jan-18 00:00:00.0000, 2.722829570278363E+08, 4.285309748219632E+07, -1.077442555576963E+07,
2460700.500000000, A.D. 2025-Jan-25 00:00:00.0000, 2.695732503734466E+08, 5.692839676911992E+07, -9.451710201851189E+06,
2460707.500000000, A.D. 2025-Feb-01 00:00:00.0000, 2.662391156213125E+08, 7.087182584490377E+07, -8.107101775344826E+06,
2460714.500000000, A.D. 2025-Feb-08 00:00:00.0000, 2.622879334800916E+08, 8.465100683245768E+07, -6.743703927519400E+06,
$$EOE